#cP2023  8 20  0  0  0.00000000      96 ORBIT IGS20 HLM  IGS
## 2276      0.00000000   900.00000000 60176 0.0000000000000
+   32   G01G02G03G04G05G06G07G08G09G10G11G12G13G14G15G16G17
+        G18G19G20G21G22G23G24G25G26G27G28G29G30G31G32  0  0
+          0  0  0  0  0  0  0  0  0  0  0  0  0  0  0  0  0
+          0  0  0  0  0  0  0  0  0  0  0  0  0  0  0  0  0
+          0  0  0  0  0  0  0  0  0  0  0  0  0  0  0  0  0
++         2  2  2  2  2  2  2  2  2  2  2  2  2  2  2  2  2
++         2  2  2  2  2  2  2  2  2  2  2  2  2  2  2  0  0
++         0  0  0  0  0  0  0  0  0  0  0  0  0  0  0  0  0
++         0  0  0  0  0  0  0  0  0  0  0  0  0  0  0  0  0
++         0  0  0  0  0  0  0  0  0  0  0  0  0  0  0  0  0
%c G  cc GPS ccc cccc cccc cccc cccc ccccc ccccc ccccc ccccc
%c cc cc ccc ccc cccc cccc cccc cccc ccccc ccccc ccccc ccccc
%f  1.2500000  1.025000000  0.00000000000  0.000000000000000
%f  0.0000000  0.000000000  0.00000000000  0.000000000000000
%i    0    0    0    0      0      0      0      0         0
%i    0    0    0    0      0      0      0      0         0
/* RAPID ORBIT COMBINATION FROM WEIGHTED AVERAGE OF:        
/* cod emr esa gfz grg jgx jpl ngs sio usn whu              
/* REFERENCED TO IGS TIME (IGST) AND TO WEIGHTED MEAN POLE: 
/* PCV:IGS20      OL/AL:FES2014b NONE     Y  ORB:CMB CLK:CMB
*  2023  8 20 15 45  0.00000000
PG01   2244.374888  14573.437039 -22423.706236    167.915021  3  5  4  96       
PG02  -5351.611810  16200.263236 -19806.964221   -563.354854  6  7  3  90       
PG03  10401.995936  21794.446794 -11328.776760   -177.785466  7  5  5  76       
PG04   1278.386783  23485.276981  12230.419971    131.403715  3  5  6  96       
PG05   3512.486723 -16192.934615  20551.921081   -139.540983  6  7  2 102       
PG06  26038.909781  -5331.640229  -1258.672575    563.564151  5  6  3  84       
PG07  18865.879217   8237.957466  17510.692246     90.386552  4  4  4 101       
PG08  -5467.254553  25724.312892  -1594.529338   -138.140379  5  8  3 107       
PG09   8861.118963  16976.488060  18303.732065    -81.659116  7  4  6 104       
PG10 -20844.840738  -7253.504529 -14828.949960    -50.061566  4  6  5 104       
PG11  20129.061973 -12429.690474  12033.945948   -329.700437  7  8  4  93       
PG12  -5514.041245 -21958.957736 -14221.226078   -415.160272  6  6  4 114       
PG13  13418.069237 -22267.445763   4655.677437    562.482068  9  9  5  86       
PG14  21257.600708  10188.738725 -12376.582394    159.908730  4  3  5  96       
PG15   1552.167550 -26278.612682  -2782.239967     69.470445  4  5  5  97       
PG16  -9379.781859  12029.585824  21394.119082   -465.694400  4  6  5 109       
PG17  15382.001533   -119.251968 -21233.714033    722.971570  4  4  3  94       
PG18 -20533.424719  -6273.829655  15750.026512   -389.220158  5  6  5  87       
PG19  17071.116388  -7870.481521 -18833.585935    360.265568  7  7  4  94       
PG20  13082.525377  -9225.577805  21203.479897    416.212315  5  5  1  90       
PG21  -7457.518405  16350.505204 -18708.583888    150.410945  6  7  2 101       
PG22  18885.923450   3919.169495 -17673.735211    137.990578  5  4  5  87       
PG23 -20637.814154 -16370.289977  -4051.413838     57.492708  6  4  5 101       
PG24   1857.960982 -16860.477205 -20724.559129   -295.480280  7  6  6  81       
PG25 -17018.353519 -20383.931017  -3150.649660    463.244303  6  5  4 104       
PG26 -17649.487158   3569.145437  19508.785845    232.170232  4  6  4 105       
PG27 -12736.108683  20920.271261   9486.935467    -25.389604  5  5  6 110       
PG28 -25882.634078   4900.359690  -3418.317936     74.347308  7  8  6 121       
PG29  -6781.243485 -17701.455883  18512.838800   -608.110514  3  7  4 106       
PG30  24869.320940   1370.275658   9716.202327   -494.880012  5  2  2 102       
PG31 -23724.499216  10271.605253   6803.220705   -222.143847  6  6  4 108       
PG32 -16099.398980   4769.288436 -20350.811835   -543.977392  5  3  7 106       
*  2023  8 20 16  0  0.00000000
PG01   -149.699972  15173.668989 -22101.164409    167.913915  2  5  4  99       
PG02  -7543.330597  16885.600462 -18496.141776   -563.351050  6  8  3 103       
PG03   9288.093834  20924.480072 -13707.046281   -177.768629  7  5  5  85       
PG04    714.543633  24633.782509   9755.362188    131.413934  3  5  6  94       
PG05   5380.043464 -14631.288743  21307.629347   -139.542215  6  7     82       
PG06  25779.193262  -5089.824163  -4143.349598    563.559234  5  6  4  89       
PG07  16979.155730   8894.152319  19051.206256     90.376823  4  5  4  93       
PG08  -5758.045091  25670.051545   1278.365445   -138.141889  5  7  3 107       
PG09   8253.884090  18905.040328  16623.808101    -81.650242  7  2  6  98       
PG10 -21880.820029  -8456.505969 -12582.524115    -50.063948  3  6  5  95       
PG11  21379.286243 -12499.334862   9541.527517   -329.716171  7  8  4  94       
PG12  -4259.464741 -20803.373130 -16274.277323   -415.164414  6  7  4 118       
PG13  13367.536962 -21513.719449   7430.349030    562.486039  9  9  6  97       
PG14  21975.037444  11273.722524  -9965.718834    159.919156  5  2  5 101       
PG15   1912.568007 -26350.373647     26.390722     69.473583  5  5  5 103       
PG16 -11058.037708  10138.193910  21608.669097   -465.689600  4  6  4 103       
PG17  14634.871869   2309.414453 -21615.676406    722.972123  5  4  3  92       
PG18 -18729.947533  -6885.455262  17615.819214   -389.232082  4  6  5  89       
PG19  16415.414406  -5768.504559 -20174.689886    360.270408  6  6  3  97       
PG20  15003.116305  -7810.538976  20469.569128    416.210857  5  5  1  86       
PG21  -9562.305123  16942.749462 -17123.279853    150.409828  6  8  2 107       
PG22  20054.836513   5564.244239 -15876.600362    137.983350  5  4  6  86       
PG23 -20722.189063 -16720.590339  -1198.652782     57.497004  6  4  4  96       
PG24   4014.291369 -17554.979196 -19766.301723   -295.490476  7  7  6  79       
PG25 -16497.078978 -20236.156168  -5911.159347    463.246214  6  6  4 109       
PG26 -19226.675264   2056.506081  18232.920643    232.168826  4  6  4  94       
PG27 -12663.136732  19624.063619  11997.538339    -25.395701  5  5  6 102       
PG28 -25436.048458   4497.868720  -6204.984168     74.343911  7  8  5 120       
PG29  -6009.615364 -19583.130740  16801.376221   -608.111132  3  8  4 111       
PG30  23753.797433   1948.436425  12116.199358   -494.877143  5     1 107       
PG31 -24399.706879  10203.471067   4074.762707   -222.144415  6  7  4 100       
PG32 -15607.887345   2402.565588 -21146.219121   -543.983468  5  3  7  88       
*  2023  8 20 16 15  0.00000000
PG01  -2455.099156  15893.830519 -21408.805301    167.912817  1  6  3  88       
PG02  -9538.526758  17614.174847 -16852.087823   -563.347291  6  8  3  87       
PG03   7935.143435  19951.062089 -15852.660552   -177.751801  7  5  5  87       
PG04    275.575099  25527.021386   7111.357641    131.424170  3  6  5  96       
PG05   7377.693733 -13129.992639  21690.068440   -139.543405  6  7     78       
PG06  25227.788824  -4729.298632  -6957.036454    563.554291  6  6  5  70       
PG07  14983.730065   9698.271984  20280.465176     90.367062  4  5  4  98       
PG08  -5999.249275  25307.606065   4128.693628   -138.142836  4  7  3  91       
PG09   7780.803063  20657.717751  14655.630815    -81.641345  7  3  7  95       
PG10 -22779.073876  -9424.040446 -10120.970980    -50.065661  2  6  5  98       
PG11  22344.155242 -12552.450348   6884.510338   -329.731935  7  8  3  75       
PG12  -2794.069789 -19565.322504 -18053.300880   -415.168274  6  7  4 122       
PG13  13258.342068 -20464.374667  10074.725204    562.490674  9  9  6  75       
PG14  22539.041088  12130.308324  -7384.730326    159.929569  5  2  5  97       
PG15   2258.068163 -26120.530484   2834.512984     69.476614  6  6  5 101       
PG16 -12830.487823   8337.422907  21440.553067   -465.685121  4  5  4  94       
PG17  14011.337979   4796.669888 -21610.466146    722.972346  5  3  3  92       
PG18 -16777.279117  -7655.703568  19180.443937   -389.243996  4  5  6 100       
PG19  15836.566559  -3511.695282 -21171.805207    360.274753  6  5  2  93       
PG20  16905.707400  -6545.727380  19383.182127    416.208756  4  5  2  94       
PG21 -11451.672869  17556.264416 -15220.911503    150.409344  6  9  2  94       
PG22  21150.569642   6984.296804 -13794.086972    137.976918  5  4  6  83       
PG23 -20574.656874 -16861.847409   1674.524633     57.501381  6  4  4  77       
PG24   6025.294721 -18302.470690 -18474.705831   -295.500674  7  7  5  70       
PG25 -15738.510869 -19918.933988  -8572.312075    463.248122  6  6  4 105       
PG26 -20743.173744    720.653841  16643.879262    232.167432  4  6  4  86       
PG27 -12607.190371  18053.820419  14294.427191    -25.401728  4  4  6  85       
PG28 -24722.566059   3961.021223  -8884.919002     74.340439  6  7  4 114       
PG29  -5396.032833 -21300.129103  14798.600393   -608.111588  2  8  4 114       
PG30  22424.134957   2662.768333  14311.760725   -494.874328  5  2     97       
PG31 -24781.527616  10076.747006   1277.699437   -222.145033  5  7  4  94       
PG32 -15226.437768    -53.390467 -21570.792367   -543.989557  4  3  6  88       
EOF
